$$SOE
2461302.500000000, A.D. 2026-Sep-19 00:00:00.0000, -3.890010240411968E+08, 2.962414048929293E+08, 4.151977408997925E+07,
2461309.500000000, A.D. 2026-Sep-26 00:00:00.0000, -3.951181474563370E+08, 2.881995700341763E+08, 4.302771723603672E+07,
2461316.500000000, A.D. 2026-Oct-03 00:00:00.0000, -4.010733035719936E+08, 2.800398313202281E+08, 4.451796888888592E+07,
2461323.500000000, A.D. 2026-Oct-10 00:00:00.0000, -4.068642862381064E+08, 2.717656950678059E+08, 4.598994405690534E+07,
2461330.500000000, A.D. 2026-Oct-17 00:00:00.0000, -4.124889741853154E+08, 2.633807116236223E+08, 4.744306830798770E+07,
2461337.500000000, A.D. 2026-Oct-24 00:00:00.0000, -4.179453318940324E+08, 2.548884728984277E+08, 4.887677805481590E+07,
2461344.500000000, A.D. 2026-Oct-31 00:00:00.0000, -4.232314102892450E+08, 2.462926097246762E+08, 5.029052080533881E+07,
2461351.500000000, A.D. 2026-Nov-07 00:00:00.0000, -4.283453469223105E+08, 2.375967891152978E+08, 5.168375535342418E+07,
2461358.500000000, A.D. 2026-Nov-14 00:00:00.0000, -4.332853654393690E+08, 2.288047123141597E+08, 5.305595196385406E+07,
2461365.500000000, A.D. 2026-Nov-21 00:00:00.0000, -4.380497761495164E+08, 2.199201143232234E+08, 5.440659277372934E+07,
2461372.500000000, A.D. 2026-Nov-28 00:00:00.0000, -4.426369786930007E+08, 2.109467619024983E+08, 5.573517225637017E+07,
2461379.500000000, A.D. 2026-Dec-05 00:00:00.0000, -4.470454631902252E+08, 2.018884493906630E+08, 5.704119736240972E+07,
2461386.500000000, A.D. 2026-Dec-12 00:00:00.0000, -4.512738097063834E+08, 1.927489954595167E+08, 5.832418757731222E+07,
2461393.500000000, A.D. 2026-Dec-19 00:00:00.0000, -4.553206879212629E+08, 1.835322408110503E+08, 5.958367506923696E+07,
2461400.500000000, A.D. 2026-Dec-26 00:00:00.0000, -4.591848571493605E+08, 1.742420459529172E+08, 6.081920486982910E+07,
2461407.500000000, A.D. 2027-Jan-02 00:00:00.0000, -4.628651664362621E+08, 1.648822888652077E+08, 6.203033504737464E+07,
2461414.500000000, A.D. 2027-Jan-09 00:00:00.0000, -4.663605546157942E+08, 1.554568625819238E+08, 6.321663686340193E+07,
2461421.500000000, A.D. 2027-Jan-16 00:00:00.0000, -4.696700502941714E+08, 1.459696726986100E+08, 6.437769491019966E+07,
2461428.500000000, A.D. 2027-Jan-23 00:00:00.0000, -4.727927717170675E+08, 1.364246347684805E+08, 6.551310722165606E+07,
2461435.500000000, A.D. 2027-Jan-30 00:00:00.0000, -4.757279263345346E+08, 1.268256715406154E+08, 6.662248533615076E+07,
2461442.500000000, A.D. 2027-Feb-06 00:00:00.0000, -4.784748096426648E+08, 1.171767103814298E+08, 6.770545430030234E+07,
2461449.500000000, A.D. 2027-Feb-13 00:00:00.0000, -4.810328037667689E+08, 1.074816821005040E+08, 6.876165275560386E+07,
2461456.500000000, A.D. 2027-Feb-20 00:00:00.0000, -4.834013781552657E+08, 9.774452039185569E+07, 6.979073326043415E+07,
2461463.500000000, A.D. 2027-Feb-27 00:00:00.0000, -4.855800909934170E+08, 8.796915868044643E+07, 7.079236245723312E+07,
2461470.500000000, A.D. 2027-Mar-06 00:00:00.0000, -4.875685883207641E+08, 7.815952630023700E+07, 7.176622096519519E+07,
2461477.500000000, A.D. 2027-Mar-13 00:00:00.0000, -4.893666024528743E+08, 6.831954605496496E+07, 7.271200331234089E+07,
2461484.500000000, A.D. 2027-Mar-20 00:00:00.0000, -4.909739508387610E+08, 5.845313232783833E+07, 7.362941794212247E+07,
2461491.500000000, A.D. 2027-Mar-27 00:00:00.0000, -4.923905351545612E+08, 4.856418919251839E+07, 7.451818723121811E+07,
2461498.500000000, A.D. 2027-Apr-03 00:00:00.0000, -4.936163404328009E+08, 3.865660847897797E+07, 7.537804749611388E+07,
2461505.500000000, A.D. 2027-Apr-10 00:00:00.0000, -4.946514341681909E+08, 2.873426781830861E+07, 7.620874898492238E+07,
2461512.500000000, A.D. 2027-Apr-17 00:00:00.0000, -4.954959653803183E+08, 1.880102865305543E+07, 7.701005585153775E+07,
2461519.500000000, A.D. 2027-Apr-24 00:00:00.0000, -4.961501635566359E+08, 8.860734151871379E+06, 7.778174610016191E+07,
2461526.500000000, A.D. 2027-May-01 00:00:00.0000, -4.966143371786616E+08, -1.082792942654580E+06, 7.852361147539705E+07,
2461533.500000000, A.D. 2027-May-08 00:00:00.0000, -4.968888715262382E+08, -1.102575178360651E+07, 7.923545733121878E+07,
2461540.500000000, A.D. 2027-May-15 00:00:00.0000, -4.969742272588322E+08, -2.096436325275135E+07, 7.991710269432047E+07,
2461547.500000000, A.D. 2027-May-22 00:00:00.0000, -4.968709413406880E+08, -3.089487074830534E+07, 8.056838045390844E+07,
2461554.500000000, A.D. 2027-May-29 00:00:00.0000, -4.965796269572891E+08, -4.081354339474985E+07, 8.118913725082698E+07,
2461561.500000000, A.D. 2027-Jun-05 00:00:00.0000, -4.961009715398176E+08, -5.071667854157542E+07, 8.177923324114558E+07,
2461568.500000000, A.D. 2027-Jun-12 00:00:00.0000, -4.954357349059623E+08, -6.060060311903257E+07, 8.233854195370990E+07,
2461575.500000000, A.D. 2027-Jun-19 00:00:00.0000, -4.945847478502443E+08, -7.046167478646801E+07, 8.286695019597653E+07,
2461582.500000000, A.D. 2027-Jun-26 00:00:00.0000, -4.935489109072453E+08, -8.029628313471732E+07, 8.336435796177766E+07,
2461589.500000000, A.D. 2027-Jul-03 00:00:00.0000, -4.923291931580728E+08, -9.010085093410538E+07, 8.383067833021617E+07,
2461596.500000000, A.D. 2027-Jul-10 00:00:00.0000, -4.909266310452981E+08, -9.987183541928552E+07, 8.426583735360730E+07,
2461603.500000000, A.D. 2027-Jul-17 00:00:00.0000, -4.893423271619782E+08, -1.096057296499375E+08, 8.466977392852855E+07,
2461610.500000000, A.D. 2027-Jul-24 00:00:00.0000, -4.875774488602890E+08, -1.192990640104215E+08, 8.504243963106699E+07,
2461617.500000000, A.D. 2027-Jul-31 00:00:00.0000, -4.856332262702216E+08, -1.289484076132142E+08, 8.538379849832256E+07,
2461624.500000000, A.D. 2027-Aug-07 00:00:00.0000, -4.835109499307024E+08, -1.385503684548286E+08, 8.569382686914687E+07,
2461631.500000000, A.D. 2027-Aug-14 00:00:00.0000, -4.812119703359182E+08, -1.481015925784217E+08, 8.597251347484207E+07,
2461638.500000000, A.D. 2027-Aug-21 00:00:00.0000, -4.787376987813161E+08, -1.575987656085368E+08, 8.621985944876206E+07,
2461645.500000000, A.D. 2027-Aug-28 00:00:00.0000, -4.760896060812544E+08, -1.670386154551587E+08, 8.643587803913899E+07,
2461652.500000000, A.D. 2027-Sep-04 00:00:00.0000, -4.732692203409624E+08, -1.764179136843774E+08, 8.662059433815740E+07,
2461659.500000000, A.D. 2027-Sep-11 00:00:00.0000, -4.702781251788388E+08, -1.857334762170988E+08, 8.677404510103461E+07,
2461666.500000000, A.D. 2027-Sep-18 00:00:00.0000, -4.671179582669796E+08, -1.949821640065099E+08, 8.689627858959721E+07,
2461673.500000000, A.D. 2027-Sep-25 00:00:00.0000, -4.637904099622117E+08, -2.041608837722515E+08, 8.698735441287178E+07,
2461680.500000000, A.D. 2027-Oct-02 00:00:00.0000, -4.602972219533048E+08, -2.132665887640536E+08, 8.704734335984002E+07,
2461687.500000000, A.D. 2027-Oct-09 00:00:00.0000, -4.566401859024527E+08, -2.222962795601442E+08, 8.707632722175179E+07,
2461694.500000000, A.D. 2027-Oct-16 00:00:00.0000, -4.528211420188684E+08, -2.312470049566238E+08, 8.707439859376907E+07,
2461701.500000000, A.D. 2027-Oct-23 00:00:00.0000, -4.488419773062688E+08, -2.401158629548498E+08, 8.704166063194966E+07,
2461708.500000000, A.D. 2027-Oct-30 00:00:00.0000, -4.447046231114307E+08, -2.489000012374175E+08, 8.697822678148553E+07,
2461715.500000000, A.D. 2027-Nov-06 00:00:00.0000, -4.404110531387014E+08, -2.575966160050761E+08, 8.688422067537053E+07,
2461722.500000000, A.D. 2027-Nov-13 00:00:00.0000, -4.359632839169914E+08, -2.662029512515533E+08, 8.675977621608794E+07,
2461729.500000000, A.D. 2027-Nov-20 00:00:00.0000, -4.313633748190315E+08, -2.747163006633732E+08, 8.660503739592925E+07,
2461736.500000000, A.D. 2027-Nov-27 00:00:00.0000, -4.266134260169185E+08, -2.831340091807484E+08, 8.642015795027842E+07,
2461743.500000000, A.D. 2027-Dec-04 00:00:00.0000, -4.217155763979073E+08, -2.914534733056685E+08, 8.620530110422225E+07,
2461750.500000000, A.D. 2027-Dec-11 00:00:00.0000, -4.166720019909390E+08, -2.996721411217695E+08, 8.596063938415694E+07,
2461757.500000000, A.D. 2027-Dec-18 00:00:00.0000, -4.114849146292130E+08, -3.077875123663406E+08, 8.568635444158158E+07,
2461764.500000000, A.D. 2027-Dec-25 00:00:00.0000, -4.061565606975823E+08, -3.157971385580000E+08, 8.538263687527141E+07,
2461771.500000000, A.D. 2028-Jan-01 00:00:00.0000, -4.006892199242395E+08, -3.236986231665968E+08, 8.504968604959366E+07,
$$EOE